STARLINK-35819          
1 66285U 25247W   25321.50003471 -.02046521  00000+0 -31281-1 0  9997
2 66285  53.1592 356.8100 0001379  63.3300  56.3602 15.56910611  3518
STARLINK-35783          
1 66286U 25247X   25321.50003471 -.02049542  00000+0 -31329-1 0  9997
2 66286  53.1593 356.8053 0001440  63.7159  57.8883 15.56913310  3518
STARLINK-34884          
1 66287U 25247Y   25321.50003471 -.02048295  00000+0 -31310-1 0  9992
2 66287  53.1592 356.8017 0001334  68.8566  54.6678 15.56911803  3835
STARLINK-34896          
1 66288U 25247Z   25321.50003471 -.02048011  00000+0 -31304-1 0  9992
2 66288  53.1592 356.7977 0001366  66.0649  59.3748 15.56912363  3839
STARLINK-35802          
1 66289U 25247AA  25321.50003471 -.02049812  00000+0 -31334-1 0  9996
2 66289  53.1591 356.7936 0001363  70.8668  56.4903 15.56913338  3514
STARLINK-35799          
1 66290U 25247AB  25321.50003471 -.02046467  00000+0 -31277-1 0  9997
2 66290  53.1592 356.7897 0001425  68.6324  60.6396 15.56912359  3881
STARLINK-35800          
1 66291U 25247AC  25321.50003471 -.02050102  00000+0 -31338-1 0  9997
2 66291  53.1594 356.7817 0001537  64.3408  68.7663 15.56912987  3889
STARLINK-35798          
1 66292U 25247AD  25321.50003471 -.02045492  00000+0 -31262-1 0  9990
2 66292  53.1592 356.7859 0001467  65.8422  65.3480 15.56910609  3562
LVM3 R/B                
1 66310U 25249A   25321.03081294  .00043341  69115-7  12173-2 0  9998
2 66310  21.3409 152.3014 6676909 193.1419 132.5963  3.13070533   479
CMS-03 (GSAT-7R)        
1 66311U 25249B   25321.46841124 -.00000242  00000+0  00000+0 0  9999
2 66311   0.2044 271.4603 0004476 201.8674 205.5528  1.00269738   239
YAOGAN-46               
1 66313U 25250A   25316.61346953 -.00000009  00000+0  00000+0 0  9995
2 66313  20.0301 111.3998 0049241 123.4899 237.0003  5.35115895   585
CZ-7A R/B               
1 66314U 25250B   25316.23333361  .31292675 -21828-4  14021-2 0  9996
2 66314  19.9176  96.2576 3166388 167.6396 202.4838  9.41652562   864
