CCSDS_OMM_VERS = 2.0
CREATION_DATE  = 
ORIGINATOR     = 

OBJECT_NAME    = STARLINK-35819
OBJECT_ID      = 2025-247W
CENTER_NAME    = EARTH
REF_FRAME      = TEME
TIME_SYSTEM    = UTC
MEAN_ELEMENT_THEORY = SGP/SGP4

EPOCH          = 2025-11-17T12:00:02.998944
MEAN_MOTION    = 15.56910611
ECCENTRICITY   = .0001379
INCLINATION    = 53.1592
RA_OF_ASC_NODE = 356.8100
ARG_OF_PERICENTER = 63.3300
MEAN_ANOMALY   = 56.3602

EPHEMERIS_TYPE = 0
CLASSIFICATION_TYPE = U
NORAD_CAT_ID   = 66285
ELEMENT_SET_NO = 999
REV_AT_EPOCH   = 351
BSTAR          = -.31281E-1
MEAN_MOTION_DOT = -.2046521E-1
MEAN_MOTION_DDOT = 0

CCSDS_OMM_VERS = 2.0
CREATION_DATE  = 
ORIGINATOR     = 

OBJECT_NAME    = STARLINK-35783
OBJECT_ID      = 2025-247X
CENTER_NAME    = EARTH
REF_FRAME      = TEME
TIME_SYSTEM    = UTC
MEAN_ELEMENT_THEORY = SGP/SGP4

EPOCH          = 2025-11-17T12:00:02.998944
MEAN_MOTION    = 15.56913310
ECCENTRICITY   = .000144
INCLINATION    = 53.1593
RA_OF_ASC_NODE = 356.8053
ARG_OF_PERICENTER = 63.7159
MEAN_ANOMALY   = 57.8883

EPHEMERIS_TYPE = 0
CLASSIFICATION_TYPE = U
NORAD_CAT_ID   = 66286
ELEMENT_SET_NO = 999
REV_AT_EPOCH   = 351
BSTAR          = -.31329E-1
MEAN_MOTION_DOT = -.2049542E-1
MEAN_MOTION_DDOT = 0

CCSDS_OMM_VERS = 2.0
CREATION_DATE  = 
ORIGINATOR     = 

OBJECT_NAME    = STARLINK-34884
OBJECT_ID      = 2025-247Y
CENTER_NAME    = EARTH
REF_FRAME      = TEME
TIME_SYSTEM    = UTC
MEAN_ELEMENT_THEORY = SGP/SGP4

EPOCH          = 2025-11-17T12:00:02.998944
MEAN_MOTION    = 15.56911803
ECCENTRICITY   = .0001334
INCLINATION    = 53.1592
RA_OF_ASC_NODE = 356.8017
ARG_OF_PERICENTER = 68.8566
MEAN_ANOMALY   = 54.6678

EPHEMERIS_TYPE = 0
CLASSIFICATION_TYPE = U
NORAD_CAT_ID   = 66287
ELEMENT_SET_NO = 999
REV_AT_EPOCH   = 383
BSTAR          = -.3131E-1
MEAN_MOTION_DOT = -.2048295E-1
MEAN_MOTION_DDOT = 0

CCSDS_OMM_VERS = 2.0
CREATION_DATE  = 
ORIGINATOR     = 

OBJECT_NAME    = STARLINK-34896
OBJECT_ID      = 2025-247Z
CENTER_NAME    = EARTH
REF_FRAME      = TEME
TIME_SYSTEM    = UTC
MEAN_ELEMENT_THEORY = SGP/SGP4

EPOCH          = 2025-11-17T12:00:02.998944
MEAN_MOTION    = 15.56912363
ECCENTRICITY   = .0001366
INCLINATION    = 53.1592
RA_OF_ASC_NODE = 356.7977
ARG_OF_PERICENTER = 66.0649
MEAN_ANOMALY   = 59.3748

EPHEMERIS_TYPE = 0
CLASSIFICATION_TYPE = U
NORAD_CAT_ID   = 66288
ELEMENT_SET_NO = 999
REV_AT_EPOCH   = 383
BSTAR          = -.31304E-1
MEAN_MOTION_DOT = -.2048011E-1
MEAN_MOTION_DDOT = 0

CCSDS_OMM_VERS = 2.0
CREATION_DATE  = 
ORIGINATOR     = 

OBJECT_NAME    = STARLINK-35802
OBJECT_ID      = 2025-247AA
CENTER_NAME    = EARTH
REF_FRAME      = TEME
TIME_SYSTEM    = UTC
MEAN_ELEMENT_THEORY = SGP/SGP4

EPOCH          = 2025-11-17T12:00:02.998944
MEAN_MOTION    = 15.56913338
ECCENTRICITY   = .0001363
INCLINATION    = 53.1591
RA_OF_ASC_NODE = 356.7936
ARG_OF_PERICENTER = 70.8668
MEAN_ANOMALY   = 56.4903

EPHEMERIS_TYPE = 0
CLASSIFICATION_TYPE = U
NORAD_CAT_ID   = 66289
ELEMENT_SET_NO = 999
REV_AT_EPOCH   = 351
BSTAR          = -.31334E-1
MEAN_MOTION_DOT = -.2049812E-1
MEAN_MOTION_DDOT = 0

CCSDS_OMM_VERS = 2.0
CREATION_DATE  = 
ORIGINATOR     = 

OBJECT_NAME    = STARLINK-35799
OBJECT_ID      = 2025-247AB
CENTER_NAME    = EARTH
REF_FRAME      = TEME
TIME_SYSTEM    = UTC
MEAN_ELEMENT_THEORY = SGP/SGP4

EPOCH          = 2025-11-17T12:00:02.998944
MEAN_MOTION    = 15.56912359
ECCENTRICITY   = .0001425
INCLINATION    = 53.1592
RA_OF_ASC_NODE = 356.7897
ARG_OF_PERICENTER = 68.6324
MEAN_ANOMALY   = 60.6396

EPHEMERIS_TYPE = 0
CLASSIFICATION_TYPE = U
NORAD_CAT_ID   = 66290
ELEMENT_SET_NO = 999
REV_AT_EPOCH   = 388
BSTAR          = -.31277E-1
MEAN_MOTION_DOT = -.2046467E-1
MEAN_MOTION_DDOT = 0

CCSDS_OMM_VERS = 2.0
CREATION_DATE  = 
ORIGINATOR     = 

OBJECT_NAME    = STARLINK-35800
OBJECT_ID      = 2025-247AC
CENTER_NAME    = EARTH
REF_FRAME      = TEME
TIME_SYSTEM    = UTC
MEAN_ELEMENT_THEORY = SGP/SGP4

EPOCH          = 2025-11-17T12:00:02.998944
MEAN_MOTION    = 15.56912987
ECCENTRICITY   = .0001537
INCLINATION    = 53.1594
RA_OF_ASC_NODE = 356.7817
ARG_OF_PERICENTER = 64.3408
MEAN_ANOMALY   = 68.7663

EPHEMERIS_TYPE = 0
CLASSIFICATION_TYPE = U
NORAD_CAT_ID   = 66291
ELEMENT_SET_NO = 999
REV_AT_EPOCH   = 388
BSTAR          = -.31338E-1
MEAN_MOTION_DOT = -.2050102E-1
MEAN_MOTION_DDOT = 0

CCSDS_OMM_VERS = 2.0
CREATION_DATE  = 
ORIGINATOR     = 

OBJECT_NAME    = STARLINK-35798
OBJECT_ID      = 2025-247AD
CENTER_NAME    = EARTH
REF_FRAME      = TEME
TIME_SYSTEM    = UTC
MEAN_ELEMENT_THEORY = SGP/SGP4

EPOCH          = 2025-11-17T12:00:02.998944
MEAN_MOTION    = 15.56910609
ECCENTRICITY   = .0001467
INCLINATION    = 53.1592
RA_OF_ASC_NODE = 356.7859
ARG_OF_PERICENTER = 65.8422
MEAN_ANOMALY   = 65.3480

EPHEMERIS_TYPE = 0
CLASSIFICATION_TYPE = U
NORAD_CAT_ID   = 66292
ELEMENT_SET_NO = 999
REV_AT_EPOCH   = 356
BSTAR          = -.31262E-1
MEAN_MOTION_DOT = -.2045492E-1
MEAN_MOTION_DDOT = 0

CCSDS_OMM_VERS = 2.0
CREATION_DATE  = 
ORIGINATOR     = 

OBJECT_NAME    = LVM3 R/B
OBJECT_ID      = 2025-249A
CENTER_NAME    = EARTH
REF_FRAME      = TEME
TIME_SYSTEM    = UTC
MEAN_ELEMENT_THEORY = SGP/SGP4

EPOCH          = 2025-11-17T00:44:22.238016
MEAN_MOTION    = 3.13070533
ECCENTRICITY   = .6676909
INCLINATION    = 21.3409
RA_OF_ASC_NODE = 152.3014
ARG_OF_PERICENTER = 193.1419
MEAN_ANOMALY   = 132.5963

EPHEMERIS_TYPE = 0
CLASSIFICATION_TYPE = U
NORAD_CAT_ID   = 66310
ELEMENT_SET_NO = 999
REV_AT_EPOCH   = 47
BSTAR          = .12173387E-2
MEAN_MOTION_DOT = .43341E-3
MEAN_MOTION_DDOT = .69115E-7

CCSDS_OMM_VERS = 2.0
CREATION_DATE  = 
ORIGINATOR     = 

OBJECT_NAME    = CMS-03 (GSAT-7R)
OBJECT_ID      = 2025-249B
CENTER_NAME    = EARTH
REF_FRAME      = TEME
TIME_SYSTEM    = UTC
MEAN_ELEMENT_THEORY = SGP/SGP4

EPOCH          = 2025-11-17T11:14:30.731136
MEAN_MOTION    = 1.00269738
ECCENTRICITY   = .0004476
INCLINATION    = 0.2044
RA_OF_ASC_NODE = 271.4603
ARG_OF_PERICENTER = 201.8674
MEAN_ANOMALY   = 205.5528

EPHEMERIS_TYPE = 0
CLASSIFICATION_TYPE = U
NORAD_CAT_ID   = 66311
ELEMENT_SET_NO = 999
REV_AT_EPOCH   = 23
BSTAR          = 0
MEAN_MOTION_DOT = -.242E-5
MEAN_MOTION_DDOT = 0

CCSDS_OMM_VERS = 2.0
CREATION_DATE  = 
ORIGINATOR     = 

OBJECT_NAME    = YAOGAN-46
OBJECT_ID      = 2025-250A
CENTER_NAME    = EARTH
REF_FRAME      = TEME
TIME_SYSTEM    = UTC
MEAN_ELEMENT_THEORY = SGP/SGP4

EPOCH          = 2025-11-12T14:43:23.767392
MEAN_MOTION    = 5.35115895
ECCENTRICITY   = .00492414
INCLINATION    = 20.0301
RA_OF_ASC_NODE = 111.3998
ARG_OF_PERICENTER = 123.4899
MEAN_ANOMALY   = 237.0003

EPHEMERIS_TYPE = 0
CLASSIFICATION_TYPE = U
NORAD_CAT_ID   = 66313
ELEMENT_SET_NO = 999
REV_AT_EPOCH   = 58
BSTAR          = 0
MEAN_MOTION_DOT = -.9E-7
MEAN_MOTION_DDOT = 0

CCSDS_OMM_VERS = 2.0
CREATION_DATE  = 
ORIGINATOR     = 

OBJECT_NAME    = CZ-7A R/B
OBJECT_ID      = 2025-250B
CENTER_NAME    = EARTH
REF_FRAME      = TEME
TIME_SYSTEM    = UTC
MEAN_ELEMENT_THEORY = SGP/SGP4

EPOCH          = 2025-11-12T05:36:00.023904
MEAN_MOTION    = 9.41652562
ECCENTRICITY   = .31663885
INCLINATION    = 19.9176
RA_OF_ASC_NODE = 96.2576
ARG_OF_PERICENTER = 167.6396
MEAN_ANOMALY   = 202.4838

EPHEMERIS_TYPE = 0
CLASSIFICATION_TYPE = U
NORAD_CAT_ID   = 66314
ELEMENT_SET_NO = 999
REV_AT_EPOCH   = 86
BSTAR          = .14021155E-2
MEAN_MOTION_DOT = .31292675E+0
MEAN_MOTION_DDOT = -.21828418E-4

